{
  "norad_id": 48606,
  "name": "TYVAK-0130",
  "history": [
    {
      "epoch": "2026-03-28T06:41:23.612064Z",
      "apogee_km": 492.56397338617717,
      "perigee_km": 480.8059063675555,
      "latitude_deg": 9.70510780831323e-06,
      "longitude_deg": 115.45144387825874,
      "height_km": 486.674507501618,
      "semi_major_axis_km": 6864.821939876866,
      "eccentricity": 0.0008564,
      "inclination_deg": 52.9958,
      "raan_deg": 41.5013,
      "arg_perigee_deg": 278.7685,
      "mean_anomaly_deg": 81.2342,
      "mean_motion_rev_day": 15.26366573
    },
    {
      "epoch": "2026-03-29T03:07:07.927104Z",
      "apogee_km": 492.5063825101988,
      "perigee_km": 480.7401833852264,
      "latitude_deg": 4.2638944278377944e-05,
      "longitude_deg": 164.23173409789757,
      "height_km": 486.3055080492117,
      "semi_major_axis_km": 6864.760282947712,
      "eccentricity": 0.000857,
      "inclination_deg": 52.9965,
      "raan_deg": 37.5552,
      "arg_perigee_deg": 281.8057,
      "mean_anomaly_deg": 78.1979,
      "mean_motion_rev_day": 15.26387137
    }
  ]
}